[{"OBJECT_NAME":"STARLINK-1454","OBJECT_ID":"2020-035Q","EPOCH":"2026-03-10T00:00:02.999808","MEAN_MOTION":15.51126442,"ECCENTRICITY":0.00086064,"INCLINATION":53.0515,"RA_OF_ASC_NODE":51.3708,"ARG_OF_PERICENTER":61.5292,"MEAN_ANOMALY":248.5071,"EPHEMERIS_TYPE":0,"CLASSIFICATION_TYPE":"U","NORAD_CAT_ID":45671,"ELEMENT_SET_NO":999,"REV_AT_EPOCH":591,"BSTAR":0.001841095,"MEAN_MOTION_DOT":0.00110444,"MEAN_MOTION_DDOT":0},{"OBJECT_NAME":"STARLINK-36636","OBJECT_ID":"2026-018Y","EPOCH":"2026-03-09T22:00:01.999584","MEAN_MOTION":15.64464953,"ECCENTRICITY":0.00019144,"INCLINATION":97.2844,"RA_OF_ASC_NODE":134.7932,"ARG_OF_PERICENTER":72.5464,"MEAN_ANOMALY":54.5572,"EPHEMERIS_TYPE":0,"CLASSIFICATION_TYPE":"U","NORAD_CAT_ID":67611,"ELEMENT_SET_NO":999,"REV_AT_EPOCH":604,"BSTAR":-0.023080936,"MEAN_MOTION_DOT":-0.01954126,"MEAN_MOTION_DDOT":0}]
